{
    "links": {
        "self": "http://www.neowsapp.com/rest/v1/neo/3402200?api_key=iIulBulltgU6a56xZRHN4H3l9WmuAYTsLGpBGhQ2"
    },
    "id": "3402200",
    "neo_reference_id": "3402200",
    "name": "(2008 CA22)",
    "designation": "2008 CA22",
    "nasa_jpl_url": "http://ssd.jpl.nasa.gov/sbdb.cgi?sstr=3402200",
    "absolute_magnitude_h": 20.6,
    "estimated_diameter": {
        "kilometers": {
            "estimated_diameter_min": 0.2016299194,
            "estimated_diameter_max": 0.4508582062
        },
        "meters": {
            "estimated_diameter_min": 201.6299194428,
            "estimated_diameter_max": 450.8582061718
        },
        "miles": {
            "estimated_diameter_min": 0.1252869847,
            "estimated_diameter_max": 0.2801502144
        },
        "feet": {
            "estimated_diameter_min": 661.5155049046,
            "estimated_diameter_max": 1479.1936371367
        }
    },
    "is_potentially_hazardous_asteroid": false,
    "close_approach_data": [
        {
            "close_approach_date": "2001-03-22",
            "close_approach_date_full": "2001-Mar-22 09:37",
            "epoch_date_close_approach": 985253820000,
            "relative_velocity": {
                "kilometers_per_second": "6.6489891593",
                "kilometers_per_hour": "23936.360973584",
                "miles_per_hour": "14873.1238505028"
            },
            "miss_distance": {
                "astronomical": "1.9880571952",
                "lunar": "773.3542489328",
                "kilometers": "297409121.840094224",
                "miles": "184801458.9539153312"
            },
            "orbiting_body": "Juptr"
        },
        {
            "close_approach_date": "2002-09-27",
            "close_approach_date_full": "2002-Sep-27 13:49",
            "epoch_date_close_approach": 1033134540000,
            "relative_velocity": {
                "kilometers_per_second": "23.8718981102",
                "kilometers_per_hour": "85938.8331965965",
                "miles_per_hour": "53399.0488826297"
            },
            "miss_distance": {
                "astronomical": "0.1213797693",
                "lunar": "47.2167302577",
                "kilometers": "18158154.948371391",
                "miles": "11282954.2873755558"
            },
            "orbiting_body": "Earth"
        },
        {
            "close_approach_date": "2008-05-12",
            "close_approach_date_full": "2008-May-12 15:15",
            "epoch_date_close_approach": 1210605300000,
            "relative_velocity": {
                "kilometers_per_second": "19.1585120613",
                "kilometers_per_hour": "68970.6434205004",
                "miles_per_hour": "42855.6756298103"
            },
            "miss_distance": {
                "astronomical": "0.4117797998",
                "lunar": "160.1823421222",
                "kilometers": "61601380.959106426",
                "miles": "38277323.1849276388"
            },
            "orbiting_body": "Earth"
        },
        {
            "close_approach_date": "2011-03-10",
            "close_approach_date_full": "2011-Mar-10 02:24",
            "epoch_date_close_approach": 1299723840000,
            "relative_velocity": {
                "kilometers_per_second": "27.2609402132",
                "kilometers_per_hour": "98139.3847675988",
                "miles_per_hour": "60979.9971629561"
            },
            "miss_distance": {
                "astronomical": "0.1858981768",
                "lunar": "72.3143907752",
                "kilometers": "27809971.286163416",
                "miles": "17280314.8583745008"
            },
            "orbiting_body": "Earth"
        }
    ],
    "orbital_data": {
        "orbit_id": "10",
        "orbit_determination_date": "2017-04-06 09:04:28",
        "first_observation_date": "2008-02-08",
        "last_observation_date": "2008-03-26",
        "data_arc_in_days": 47,
        "observations_used": 25,
        "orbit_uncertainty": "7",
        "minimum_orbit_intersection": ".106407",
        "jupiter_tisserand_invariant": "3.410",
        "epoch_osculation": "2459000.5",
        "eccentricity": ".7284708013249718",
        "semi_major_axis": "2.030185531238633",
        "inclination": "8.121450648457976",
        "ascending_node_longitude": "307.6734758396394",
        "orbital_period": "1056.579108767776",
        "perihelion_distance": ".5512546504588625",
        "perihelion_argument": "322.5958883574008",
        "aphelion_distance": "3.509116412018404",
        "perihelion_time": "2458848.488403351340",
        "mean_anomaly": "51.79373161877028",
        "mean_motion": ".3407222393596691",
        "equinox": "J2000",
        "orbit_class": {
            "orbit_class_type": "APO",
            "orbit_class_description": "Near-Earth asteroid orbits which cross the Earth’s orbit similar to that of 1862 Apollo",
            "orbit_class_range": "a (semi-major axis) > 1.0 AU; q (perihelion) < 1.017 AU"
        }
    },
    "is_sentry_object": false
}